[{"OBJECT_NAME":"STARLINK-34750","OBJECT_ID":"2025-165F","EPOCH":"2026-03-09T19:29:08.504736","MEAN_MOTION":15.05646009,"ECCENTRICITY":0.00012089,"INCLINATION":97.603,"RA_OF_ASC_NODE":147.4231,"ARG_OF_PERICENTER":103.575,"MEAN_ANOMALY":256.5612,"EPHEMERIS_TYPE":0,"CLASSIFICATION_TYPE":"U","NORAD_CAT_ID":65061,"ELEMENT_SET_NO":999,"REV_AT_EPOCH":3481,"BSTAR":0.00048405218,"MEAN_MOTION_DOT":6.93e-5,"MEAN_MOTION_DDOT":0},{"OBJECT_NAME":"CZ-6A DEB","OBJECT_ID":"2022-151AAS","EPOCH":"2026-03-09T03:45:24.122016","MEAN_MOTION":15.06999256,"ECCENTRICITY":0.00393195,"INCLINATION":98.6364,"RA_OF_ASC_NODE":147.7741,"ARG_OF_PERICENTER":181.1546,"MEAN_ANOMALY":178.9594,"EPHEMERIS_TYPE":0,"CLASSIFICATION_TYPE":"U","NORAD_CAT_ID":55894,"ELEMENT_SET_NO":999,"REV_AT_EPOCH":17150,"BSTAR":0.0072812999,"MEAN_MOTION_DOT":0.00112507,"MEAN_MOTION_DDOT":0}]
